GLOBALSTAR M035         
1 25851U 99037A   25210.55384052 -.00000018  00000+0  17132-2 0  9996
2 25851  51.9983 320.4869 0013724  52.6701 320.3855 11.04538687100941
GLOBALSTAR M032         
1 25852U 99037B   25210.85003588 -.00000059  00000+0  26150-3 0  9998
2 25852  51.9941 142.0773 0011897 239.2948 120.6680 11.19062197139564
GLOBALSTAR M051         
1 25853U 99037C   25210.49832857 -.00000063  00000+0  20909-3 0  9999
2 25853  51.9809 298.8248 0000256 239.2776 120.8010 11.42204597137229
GLOBALSTAR M030         
1 25854U 99037D   25210.91859933 -.00000026  00000+0  10435-2 0  9992
2 25854  51.9877 101.1973 0003469 112.3943 247.7242 11.55111586154989
GLOBALSTAR M048         
1 25872U 99041A   25210.81093821 -.00000075  00000+0 -12677-3 0  9998
2 25872  51.9333 234.7514 0013680 258.5419 272.2462 11.33858430129810
GLOBALSTAR M026         
1 25873U 99041B   25210.87150791 -.00000025  00000+0  14241-2 0  9997
2 25873  52.0017  77.2860 0002131   5.0062  78.4413 11.06845930153218
GLOBALSTAR M043         
1 25874U 99041C   25210.69992609 -.00000051  00000+0  52648-3 0  9993
2 25874  51.9435 344.3524 0013439  27.5071 345.9168 11.25694618127663
GLOBALSTAR M028         
1 25875U 99041D   25210.91246393 -.00000048  00000+0  33655-3 0  9994
2 25875  51.9630  65.6650 0063327 163.4679 196.8265 12.50585340195520
